{"fetched_at":"2026-07-09T18:16:44.960Z","source":"https://celestrak.org/NORAD/elements/gp.php?GROUP=planet&FORMAT=JSON","constellation":"superdove","records":[{"OBJECT_NAME":"FLOCK 4BE-3","OBJECT_ID":"2024-149CX","EPOCH":"2026-07-08T18:10:52.438368","CLASSIFICATION_TYPE":"U","MEAN_MOTION":15.42239472,"ECCENTRICITY":0.00044438,"INCLINATION":97.3687,"RA_OF_ASC_NODE":273.8856,"ARG_OF_PERICENTER":188.5262,"MEAN_ANOMALY":171.5911,"EPHEMERIS_TYPE":0,"NORAD_CAT_ID":60561,"ELEMENT_SET_NO":999,"REV_AT_EPOCH":10566,"BSTAR":0.00030637404,"MEAN_MOTION_DOT":0.00013087,"MEAN_MOTION_DDOT":0},{"OBJECT_NAME":"FLOCK 4BE-19","OBJECT_ID":"2024-149CZ","EPOCH":"2026-07-08T18:15:01.798272","CLASSIFICATION_TYPE":"U","MEAN_MOTION":15.45427253,"ECCENTRICITY":0.00053632,"INCLINATION":97.374,"RA_OF_ASC_NODE":275.5359,"ARG_OF_PERICENTER":194.5146,"MEAN_ANOMALY":165.595,"EPHEMERIS_TYPE":0,"NORAD_CAT_ID":60563,"ELEMENT_SET_NO":999,"REV_AT_EPOCH":10575,"BSTAR":0.00037934203,"MEAN_MOTION_DOT":0.00018083,"MEAN_MOTION_DDOT":0},{"OBJECT_NAME":"FLOCK 4G-8","OBJECT_ID":"2025-009E","EPOCH":"2026-07-08T17:36:47.671776","CLASSIFICATION_TYPE":"U","MEAN_MOTION":15.30160464,"ECCENTRICITY":0.00033838,"INCLINATION":97.4002,"RA_OF_ASC_NODE":271.6529,"ARG_OF_PERICENTER":216.9456,"MEAN_ANOMALY":143.1552,"EPHEMERIS_TYPE":0,"NORAD_CAT_ID":62613,"ELEMENT_SET_NO":999,"REV_AT_EPOCH":8221,"BSTAR":0.00024229017,"MEAN_MOTION_DOT":0.00006995,"MEAN_MOTION_DDOT":0},{"OBJECT_NAME":"FLOCK 4G-13","OBJECT_ID":"2025-009N","EPOCH":"2026-07-08T18:22:13.585728","CLASSIFICATION_TYPE":"U","MEAN_MOTION":15.4814334,"ECCENTRICITY":0.0005968,"INCLINATION":97.3941,"RA_OF_ASC_NODE":273.4674,"ARG_OF_PERICENTER":214.3648,"MEAN_ANOMALY":145.7217,"EPHEMERIS_TYPE":0,"NORAD_CAT_ID":62621,"ELEMENT_SET_NO":999,"REV_AT_EPOCH":8233,"BSTAR":0.0013376161,"MEAN_MOTION_DOT":0.00070733,"MEAN_MOTION_DDOT":0},{"OBJECT_NAME":"FLOCK 4G-9","OBJECT_ID":"2025-009P","EPOCH":"2026-07-08T19:33:16.361280","CLASSIFICATION_TYPE":"U","MEAN_MOTION":15.2843531,"ECCENTRICITY":0.00034868,"INCLINATION":97.3954,"RA_OF_ASC_NODE":270.6089,"ARG_OF_PERICENTER":231.9391,"MEAN_ANOMALY":128.1535,"EPHEMERIS_TYPE":0,"NORAD_CAT_ID":62622,"ELEMENT_SET_NO":999,"REV_AT_EPOCH":8216,"BSTAR":0.0002102859,"MEAN_MOTION_DOT":0.00005746,"MEAN_MOTION_DDOT":0},{"OBJECT_NAME":"FLOCK 4G-7","OBJECT_ID":"2025-009R","EPOCH":"2026-07-08T18:45:41.925600","CLASSIFICATION_TYPE":"U","MEAN_MOTION":15.29747347,"ECCENTRICITY":0.00018978,"INCLINATION":97.3939,"RA_OF_ASC_NODE":270.9809,"ARG_OF_PERICENTER":204.9279,"MEAN_ANOMALY":155.187,"EPHEMERIS_TYPE":0,"NORAD_CAT_ID":62624,"ELEMENT_SET_NO":999,"REV_AT_EPOCH":8220,"BSTAR":0.00026951539,"MEAN_MOTION_DOT":0.00007691,"MEAN_MOTION_DDOT":0},{"OBJECT_NAME":"FLOCK 4G-12","OBJECT_ID":"2025-009S","EPOCH":"2026-07-08T18:38:23.826624","CLASSIFICATION_TYPE":"U","MEAN_MOTION":15.29682362,"ECCENTRICITY":0.00034839,"INCLINATION":97.4018,"RA_OF_ASC_NODE":271.5199,"ARG_OF_PERICENTER":212.1963,"MEAN_ANOMALY":147.9066,"EPHEMERIS_TYPE":0,"NORAD_CAT_ID":62625,"ELEMENT_SET_NO":999,"REV_AT_EPOCH":8220,"BSTAR":0.00028359164,"MEAN_MOTION_DOT":0.00008081,"MEAN_MOTION_DDOT":0},{"OBJECT_NAME":"FLOCK 4G-11","OBJECT_ID":"2025-009W","EPOCH":"2026-07-08T18:17:15.452160","CLASSIFICATION_TYPE":"U","MEAN_MOTION":15.29791119,"ECCENTRICITY":0.00019879,"INCLINATION":97.392,"RA_OF_ASC_NODE":271.0709,"ARG_OF_PERICENTER":207.6247,"MEAN_ANOMALY":152.4888,"EPHEMERIS_TYPE":0,"NORAD_CAT_ID":62629,"ELEMENT_SET_NO":999,"REV_AT_EPOCH":8221,"BSTAR":0.00028533396,"MEAN_MOTION_DOT":0.00008158,"MEAN_MOTION_DDOT":0},{"OBJECT_NAME":"FLOCK 4G-26","OBJECT_ID":"2025-009AA","EPOCH":"2026-07-08T04:30:18.513792","CLASSIFICATION_TYPE":"U","MEAN_MOTION":15.29962849,"ECCENTRICITY":0.00029466,"INCLINATION":97.4011,"RA_OF_ASC_NODE":271.0916,"ARG_OF_PERICENTER":201.6977,"MEAN_ANOMALY":158.4139,"EPHEMERIS_TYPE":0,"NORAD_CAT_ID":62633,"ELEMENT_SET_NO":999,"REV_AT_EPOCH":8212,"BSTAR":0.00027037522,"MEAN_MOTION_DOT":0.00007768,"MEAN_MOTION_DDOT":0},{"OBJECT_NAME":"FLOCK 4G-28","OBJECT_ID":"2025-009AB","EPOCH":"2026-07-08T12:04:28.950240","CLASSIFICATION_TYPE":"U","MEAN_MOTION":15.35202688,"ECCENTRICITY":0.00015198,"INCLINATION":97.402,"RA_OF_ASC_NODE":274.137,"ARG_OF_PERICENTER":176.1511,"MEAN_ANOMALY":183.9744,"EPHEMERIS_TYPE":0,"NORAD_CAT_ID":62634,"ELEMENT_SET_NO":999,"REV_AT_EPOCH":8235,"BSTAR":0.00018752076,"MEAN_MOTION_DOT":0.00006326,"MEAN_MOTION_DDOT":0},{"OBJECT_NAME":"FLOCK 4G-20","OBJECT_ID":"2025-009AD","EPOCH":"2026-07-08T18:22:00.275808","CLASSIFICATION_TYPE":"U","MEAN_MOTION":15.59166741,"ECCENTRICITY":0.00059159,"INCLINATION":97.3844,"RA_OF_ASC_NODE":274.933,"ARG_OF_PERICENTER":220.5549,"MEAN_ANOMALY":139.5267,"EPHEMERIS_TYPE":0,"NORAD_CAT_ID":62636,"ELEMENT_SET_NO":999,"REV_AT_EPOCH":8247,"BSTAR":0.0015532627,"MEAN_MOTION_DOT":0.00123188,"MEAN_MOTION_DDOT":0},{"OBJECT_NAME":"FLOCK 4G-24","OBJECT_ID":"2025-009AE","EPOCH":"2026-07-08T18:55:58.859616","CLASSIFICATION_TYPE":"U","MEAN_MOTION":15.30282835,"ECCENTRICITY":0.00030432,"INCLINATION":97.4019,"RA_OF_ASC_NODE":271.9918,"ARG_OF_PERICENTER":184.7404,"MEAN_ANOMALY":175.3808,"EPHEMERIS_TYPE":0,"NORAD_CAT_ID":62637,"ELEMENT_SET_NO":999,"REV_AT_EPOCH":8223,"BSTAR":0.00022509419,"MEAN_MOTION_DOT":0.00006518,"MEAN_MOTION_DDOT":0},{"OBJECT_NAME":"FLOCK 4G-3","OBJECT_ID":"2025-009AG","EPOCH":"2026-07-08T18:43:10.764480","CLASSIFICATION_TYPE":"U","MEAN_MOTION":15.29783248,"ECCENTRICITY":0.00025621,"INCLINATION":97.4022,"RA_OF_ASC_NODE":271.6959,"ARG_OF_PERICENTER":189.3147,"MEAN_ANOMALY":170.8047,"EPHEMERIS_TYPE":0,"NORAD_CAT_ID":62639,"ELEMENT_SET_NO":999,"REV_AT_EPOCH":8220,"BSTAR":0.0002692889,"MEAN_MOTION_DOT":0.00007693,"MEAN_MOTION_DDOT":0},{"OBJECT_NAME":"FLOCK 4G-27","OBJECT_ID":"2025-009AJ","EPOCH":"2026-07-08T19:10:59.590848","CLASSIFICATION_TYPE":"U","MEAN_MOTION":15.29727342,"ECCENTRICITY":0.00019136,"INCLINATION":97.3929,"RA_OF_ASC_NODE":271.0714,"ARG_OF_PERICENTER":188.3351,"MEAN_ANOMALY":171.7858,"EPHEMERIS_TYPE":0,"NORAD_CAT_ID":62641,"ELEMENT_SET_NO":999,"REV_AT_EPOCH":8220,"BSTAR":0.00025278207,"MEAN_MOTION_DOT":0.00007204,"MEAN_MOTION_DDOT":0},{"OBJECT_NAME":"FLOCK 4G-29","OBJECT_ID":"2025-009AK","EPOCH":"2026-07-08T10:59:16.707264","CLASSIFICATION_TYPE":"U","MEAN_MOTION":15.29782544,"ECCENTRICITY":0.00027557,"INCLINATION":97.4015,"RA_OF_ASC_NODE":271.3353,"ARG_OF_PERICENTER":186.2861,"MEAN_ANOMALY":173.8345,"EPHEMERIS_TYPE":0,"NORAD_CAT_ID":62642,"ELEMENT_SET_NO":999,"REV_AT_EPOCH":8215,"BSTAR":0.00019893811,"MEAN_MOTION_DOT":0.00005662,"MEAN_MOTION_DDOT":0},{"OBJECT_NAME":"FLOCK 4G-22","OBJECT_ID":"2025-009AN","EPOCH":"2026-07-08T19:16:14.896416","CLASSIFICATION_TYPE":"U","MEAN_MOTION":15.29689068,"ECCENTRICITY":0.00023123,"INCLINATION":97.4003,"RA_OF_ASC_NODE":271.715,"ARG_OF_PERICENTER":179.0266,"MEAN_ANOMALY":181.0979,"EPHEMERIS_TYPE":0,"NORAD_CAT_ID":62645,"ELEMENT_SET_NO":999,"REV_AT_EPOCH":8222,"BSTAR":0.00024243269,"MEAN_MOTION_DOT":0.00006898,"MEAN_MOTION_DDOT":0}]}
